TDRS 3                  
1 19548U 88091B   26173.80629387 -.00000305  00000+0  00000+0 0  9992
2 19548  12.5971 340.9686 0038120 356.6851 174.7750  1.00271828125444
FLTSATCOM 8 (USA 46)    
1 20253U 89077A   26173.84082227 -.00000372  00000+0  00000+0 0  9996
2 20253  12.4200 351.1293 0004097  58.5494 289.7994  1.00274578260619
SKYNET 4C               
1 20776U 90079A   26162.20198486  .00000132  00000+0  00000+0 0  9996
2 20776  13.3424 349.8525 0002400  96.2313 279.5534  1.00274127130831
TDRS 5                  
1 21639U 91054B   26173.70461553  .00000077  00000+0  00000+0 0  9992
2 21639  14.0703 353.7411 0006033 273.9865  89.1956  1.00277286127779
TDRS 6                  
1 22314U 93003B   26173.37904998 -.00000303  00000+0  00000+0 0  9990
2 22314  14.1828 357.0197 0008356 178.9270 185.2266  1.00269473122463
UFO 2 (USA 95)          
1 22787U 93056A   26173.62739875  .00000119  00000+0  00000+0 0  9994
2 22787  11.8967   3.5239 0004757   8.9961 152.7785  1.00271270118609
USA 99 (MILSTAR-1 1)    
1 22988U 94009A   26173.40941603 -.00000246  00000+0  00000+0 0  9998
2 22988  17.6350  27.6530 0000667 221.5707 144.6327  0.98724432 33001
UFO 4 (USA 108)         
1 23467U 95003A   26173.77869344 -.00000027  00000+0  00000+0 0  9994
2 23467   9.6923  13.2100 0003005  74.9155 275.3439  1.00273097115008
TDRS 7                  
1 23613U 95035B   26173.62344095 -.00000246  00000+0  00000+0 0  9990
2 23613  13.3749 348.1522 0011913  81.4406 154.5539  1.00279822113308
USA 115 (MILSTAR-1 2)   
1 23712U 95060A   26173.51245683 -.00000208  00000+0  00000+0 0  9997
2 23712  14.0747   3.7119 0001768 132.6995 226.3078  1.00364439 32933
INMARSAT 3-F1           
1 23839U 96020A   26173.58839047 -.00000088  00000+0  00000+0 0  9990
2 23839  10.6117  46.5843 0003801  60.3443 274.7819  0.99978092110301
INMARSAT 3-F2           
1 24307U 96053A   26173.63426117 -.00000299  00000+0  00000+0 0  9997
2 24307   9.8686  53.8806 0006543  35.1715 194.1857  1.00001632108978
INMARSAT 3-F3           
1 24674U 96070A   26173.82311547  .00000130  00000+0  00000+0 0  9997
2 24674  10.3298  49.5990 0003164  35.5345 158.8558  0.99985121107960
AMC-3                   
1 24936U 97050A   26173.59136030 -.00000004  00000+0  00000+0 0  9994
2 24936   8.1784  63.9286 0004406  30.0620 235.7958  0.99064631 52489
USA 134                 
1 25019U 97065A   26173.57984747 -.00000069  00000+0  00000+0 0  9998
2 25019  12.7908  21.6851 0003274 342.7663   2.6931  1.00269019 33001
INMARSAT 3-F5           
1 25153U 98006B   26173.08169546 -.00000296  00000+0  00000+0 0  9993
2 25153   9.7047  53.2137 0004230  33.3390 159.1307  1.00274184103946
ABS-6                   
1 25924U 99053A   26173.78308448 -.00000115  00000+0  00000+0 0  9995
2 25924   0.0399 272.3573 0004209 187.5503 251.9894  1.00278368 97894
UFO 10 (USA 146)        
1 25967U 99063A   26173.38364333 -.00000194  00000+0  00000+0 0  9991
2 25967   9.8653  27.1781 0001850  48.9123 309.6249  1.00269975 97399
ASIASTAR                
1 26107U 00016A   26173.62279404 -.00000337  00000+0  00000+0 0  9998
2 26107   9.1434  58.0967 0004394  31.7980 150.1082  1.00274324 95972
USA 149 (DSP 20)        
1 26356U 00024A   26173.78311346  .00000088  00000+0  00000+0 0  9994
2 26356  13.1749  11.8155 0001864 320.7699  54.9864  1.00277905 32973
TDRS 8                  
1 26388U 00034A   26173.61880735 -.00000201  00000+0  00000+0 0  9993
2 26388  12.6916  31.2748 0004840  22.8645 164.1076  1.00276509 95236
NSS-11                  
1 26554U 00059A   26173.77947344  .00000027  00000+0  00000+0 0  9997
2 26554   2.1418  81.3311 0002979   1.4938 284.7307  1.00271343 41343
USA 153                 
1 26575U 00065A   26173.62865023 -.00000330  00000+0  00000+0 0  9992
2 26575  11.6341  35.3776 0003064  48.3191 187.8643  1.00268741 32981
AMC-6                   
1 26580U 00067A   26173.68795111  .00000091  00000+0  00000+0 0  9999
2 26580   0.1670  83.3447 0003715  16.8919 283.2397  1.00270932 93949
USA 157 (MILSTAR-2 2)   
1 26715U 01009A   26173.72197535  .00000104  00000+0  00000+0 0  9992
2 26715  11.5490  19.7337 0039257 177.2549 183.8466  1.00277995 33006
INTELSAT 902 (IS-902)   
1 26900U 01039A   26173.52086353 -.00000284  00000+0  00000+0 0  9994
2 26900   6.1299  71.7183 0004236  16.9128 319.4692  1.00270083 90740
USA 164 (MILSTAR-2 3)   
1 27168U 02001A   26173.82336654  .00000092  00000+0  00000+0 0  9992
2 27168  11.1866  21.8763 0099764   8.4426 196.0527  1.00268864 33017
INTELSAT 904 (IS-904)   
1 27380U 02007A   26173.45322231 -.00000227  00000+0  00000+0 0  9990
2 27380   6.9338  69.1239 0006431   7.1690 325.9880  1.00272928 51819
DIRECTV 5 (TEMPO 1)     
1 27426U 02023A   26173.72278431 -.00000057  00000+0  00000+0 0  9992
2 27426   4.8927  75.2450 0003379  19.3201 326.4273  1.00272484 88173
INTELSAT 905 (IS-905)   
1 27438U 02027A   26173.78871025  .00000093  00000+0  00000+0 0  9992
2 27438   6.7682  69.7349 0004070  24.2259 323.7262  1.00272620 51414
GALAXY 3C (G-3C)        
1 27445U 02030A   26173.58322748 -.00000152  00000+0  00000+0 0  9992
2 27445   3.7470  77.9094 0001793  26.8189 281.1480  1.00271935 46546
